$$SOE
2459580.500000000, A.D. 2022-Jan-01 00:00:00.0000, 2.106020302663868E+08, 1.340803651040217E+08, 8.541726073399472E+07,
2459587.500000000, A.D. 2022-Jan-08 00:00:00.0000, 2.069563100948140E+08, 1.486278189013870E+08, 8.161362644177225E+07,
2459594.500000000, A.D. 2022-Jan-15 00:00:00.0000, 2.027860308300652E+08, 1.627987981043942E+08, 7.760307094386734E+07,
2459601.500000000, A.D. 2022-Jan-22 00:00:00.0000, 1.981232106738650E+08, 1.765746017567349E+08, 7.340396774292915E+07,
2459608.500000000, A.D. 2022-Jan-29 00:00:00.0000, 1.929996784758278E+08, 1.899400427071112E+08, 6.903411269524653E+07,
2459615.500000000, A.D. 2022-Feb-05 00:00:00.0000, 1.874467723957497E+08, 2.028831583312640E+08, 6.451061636214721E+07,
2459622.500000000, A.D. 2022-Feb-12 00:00:00.0000, 1.814950978721841E+08, 2.153949103222138E+08, 5.984982562573810E+07,
2459629.500000000, A.D. 2022-Feb-19 00:00:00.0000, 1.751743387457337E+08, 2.274688857582057E+08, 5.506727113923503E+07,
2459636.500000000, A.D. 2022-Feb-26 00:00:00.0000, 1.685131145933379E+08, 2.391010063145685E+08, 5.017763684983546E+07,
2459643.500000000, A.D. 2022-Mar-05 00:00:00.0000, 1.615388784808306E+08, 2.502892505609991E+08, 4.519474782819252E+07,
2459650.500000000, A.D. 2022-Mar-12 00:00:00.0000, 1.542778494371370E+08, 2.610333930863732E+08, 4.013157293438521E+07,
2459657.500000000, A.D. 2022-Mar-19 00:00:00.0000, 1.467549740854819E+08, 2.713347628367830E+08, 3.500023921069740E+07,
2459664.500000000, A.D. 2022-Mar-26 00:00:00.0000, 1.389939122617360E+08, 2.811960218592392E+08, 2.981205527171536E+07,
2459671.500000000, A.D. 2022-Apr-02 00:00:00.0000, 1.310170420281540E+08, 2.906209646993543E+08, 2.457754134029867E+07,
2459678.500000000, A.D. 2022-Apr-09 00:00:00.0000, 1.228454802635559E+08, 2.996143380992864E+08, 1.930646393648967E+07,
2459685.500000000, A.D. 2022-Apr-16 00:00:00.0000, 1.144991156641531E+08, 3.081816808234020E+08, 1.400787361577637E+07,
2459692.500000000, A.D. 2022-Apr-23 00:00:00.0000, 1.059966499048827E+08, 3.163291835510232E+08, 8.690144644632995E+06,
2459699.500000000, A.D. 2022-Apr-30 00:00:00.0000, 9.735564259501503E+07, 3.240635652457846E+08, 3.361015554787219E+06,
2459706.500000000, A.D. 2022-May-07 00:00:00.0000, 8.859256103312290E+07, 3.313919626052794E+08, -1.972370677815706E+06,
2459713.500000000, A.D. 2022-May-14 00:00:00.0000, 7.972283449699786E+07, 3.383218341871913E+08, -7.303427327747375E+06,
2459720.500000000, A.D. 2022-May-21 00:00:00.0000, 7.076090971490391E+07, 3.448608785395942E+08, -1.262608569907154E+07,
2459727.500000000, A.D. 2022-May-28 00:00:00.0000, 6.172030599564757E+07, 3.510169640074461E+08, -1.793475834849338E+07,
2459734.500000000, A.D. 2022-Jun-04 00:00:00.0000, 5.261366949048157E+07, 3.567980686194683E+08, -2.322430402268785E+07,
2459741.500000000, A.D. 2022-Jun-11 00:00:00.0000, 4.345282612595823E+07, 3.622122288705209E+08, -2.848999445774667E+07,
2459748.500000000, A.D. 2022-Jun-18 00:00:00.0000, 3.424883280291405E+07, 3.672674963268456E+08, -3.372748311219199E+07,
2459755.500000000, A.D. 2022-Jun-25 00:00:00.0000, 2.501202657864840E+07, 3.719719010372221E+08, -3.893277585728569E+07,
2459762.500000000, A.D. 2022-Jul-02 00:00:00.0000, 1.575207175892895E+07, 3.763334208002704E+08, -4.410220362243229E+07,
2459769.500000000, A.D. 2022-Jul-09 00:00:00.0000, 6.478005165704872E+06, 3.803599556763988E+08, -4.923239696924770E+07,
2459776.500000000, A.D. 2022-Jul-16 00:00:00.0000, -2.801720533196549E+06, 3.840593081291603E+08, -5.432026243377163E+07,
2459783.500000000, A.D. 2022-Jul-23 00:00:00.0000, -1.207919763570709E+07, 3.874391682556819E+08, -5.936296034855746E+07,
2459790.500000000, A.D. 2022-Jul-30 00:00:00.0000, -2.134702824249935E+07, 3.905071002015730E+08, -6.435788433518085E+07,
2459797.500000000, A.D. 2022-Aug-06 00:00:00.0000, -3.059828946494317E+07, 3.932705299300855E+08, -6.930264264889877E+07,
2459804.500000000, A.D. 2022-Aug-13 00:00:00.0000, -3.982649974574940E+07, 3.957367366849623E+08, -7.419504097930688E+07,
2459811.500000000, A.D. 2022-Aug-20 00:00:00.0000, -4.902558776575379E+07, 3.979128472746863E+08, -7.903306650629196E+07,
2459818.500000000, A.D. 2022-Aug-27 00:00:00.0000, -5.818986376873711E+07, 3.998058321299873E+08, -8.381487317997608E+07,
2459825.500000000, A.D. 2022-Sep-03 00:00:00.0000, -6.731399295332365E+07, 4.014225027489123E+08, -8.853876816420761E+07,
2459832.500000000, A.D. 2022-Sep-10 00:00:00.0000, -7.639297073555808E+07, 4.027695103186669E+08, -9.320319936371723E+07,
2459839.500000000, A.D. 2022-Sep-17 00:00:00.0000, -8.542209974390416E+07, 4.038533453109342E+08, -9.780674395722565E+07,
2459846.500000000, A.D. 2022-Sep-24 00:00:00.0000, -9.439696837712739E+07, 4.046803378249605E+08, -1.023480978702242E+08,
2459853.500000000, A.D. 2022-Oct-01 00:00:00.0000, -1.033134305785921E+08, 4.052566585038772E+08, -1.068260661393154E+08,
2459860.500000000, A.D. 2022-Oct-08 00:00:00.0000, -1.121675863179658E+08, 4.055883204146143E+08, -1.112395540952021E+08,
2459867.500000000, A.D. 2022-Oct-15 00:00:00.0000, -1.209557636155291E+08, 4.056811829782389E+08, -1.155875591184017E+08,
2459874.500000000, A.D. 2022-Oct-22 00:00:00.0000, -1.296745041973097E+08, 4.055409561701227E+08, -1.198691628469244E+08,
2459881.500000000, A.D. 2022-Oct-29 00:00:00.0000, -1.383205501958126E+08, 4.051732023106766E+08, -1.240835242210934E+08,
2459888.500000000, A.D. 2022-Nov-05 00:00:00.0000, -1.468908297183360E+08, 4.045833381170253E+08, -1.282298732841070E+08,
2459895.500000000, A.D. 2022-Nov-12 00:00:00.0000, -1.553824431718845E+08, 4.037766382254795E+08, -1.323075054102725E+08,
2459902.500000000, A.D. 2022-Nov-19 00:00:00.0000, -1.637926509915260E+08, 4.027582391803162E+08, -1.363157759309035E+08,
2459909.500000000, A.D. 2022-Nov-26 00:00:00.0000, -1.721188624430714E+08, 4.015331434482439E+08, -1.402540951753622E+08,
2459916.500000000, A.D. 2022-Dec-03 00:00:00.0000, -1.803586252721155E+08, 4.001062234109152E+08, -1.441219239078180E+08,
2459923.500000000, A.D. 2022-Dec-10 00:00:00.0000, -1.885096160962659E+08, 3.984822253241364E+08, -1.479187691298421E+08,
2459930.500000000, A.D. 2022-Dec-17 00:00:00.0000, -1.965696314621829E+08, 3.966657731937916E+08, -1.516441802233159E+08,
2459937.500000000, A.D. 2022-Dec-24 00:00:00.0000, -2.045365794081597E+08, 3.946613724818862E+08, -1.552977454216455E+08,
2459944.500000000, A.D. 2022-Dec-31 00:00:00.0000, -2.124084711283791E+08, 3.924734137330252E+08, -1.588790886080460E+08,
2459951.500000000, A.D. 2023-Jan-07 00:00:00.0000, -2.201834125736172E+08, 3.901061770697498E+08, -1.623878663504690E+08,
2459958.500000000, A.D. 2023-Jan-14 00:00:00.0000, -2.278595979160118E+08, 3.875638380429034E+08, -1.658237649315067E+08,
2459965.500000000, A.D. 2023-Jan-21 00:00:00.0000, -2.354353054847747E+08, 3.848504716555756E+08, -1.691864975537155E+08,
2459972.500000000, A.D. 2023-Jan-28 00:00:00.0000, -2.429088924705138E+08, 3.819700543562074E+08, -1.724758020532542E+08,
2459979.500000000, A.D. 2023-Feb-04 00:00:00.0000, -2.502787885774063E+08, 3.789264670225752E+08, -1.756914388390097E+08,
2459986.500000000, A.D. 2023-Feb-11 00:00:00.0000, -2.575434903905708E+08, 3.757234987401747E+08, -1.788331888945507E+08,
2459993.500000000, A.D. 2023-Feb-18 00:00:00.0000, -2.647015564951899E+08, 3.723648505496145E+08, -1.819008518910638E+08,
2460000.500000000, A.D. 2023-Feb-25 00:00:00.0000, -2.717516030600968E+08, 3.688541389997686E+08, -1.848942444362638E+08,
2460007.500000000, A.D. 2023-Mar-04 00:00:00.0000, -2.786922997610453E+08, 3.651948995251035E+08, -1.878131984560075E+08,
2460014.500000000, A.D. 2023-Mar-11 00:00:00.0000, -2.855223659940062E+08, 3.613905896481813E+08, -1.906575597010714E+08,
2460021.500000000, A.D. 2023-Mar-18 00:00:00.0000, -2.922405673117855E+08, 3.574445919589738E+08, -1.934271863781131E+08,
2460028.500000000, A.D. 2023-Mar-25 00:00:00.0000, -2.988457118623173E+08, 3.533602168253225E+08, -1.961219479186037E+08,
2460035.500000000, A.D. 2023-Apr-01 00:00:00.0000, -3.053366463870710E+08, 3.491407052297595E+08, -1.987417238843713E+08,
2460042.500000000, A.D. 2023-Apr-08 00:00:00.0000, -3.117122523793653E+08, 3.447892329598040E+08, -2.012864028457815E+08,
2460049.500000000, A.D. 2023-Apr-15 00:00:00.0000, -3.179714447249284E+08, 3.403089150483997E+08, -2.037558811019753E+08,
2460056.500000000, A.D. 2023-Apr-22 00:00:00.0000, -3.241131710008270E+08, 3.357028074150262E+08, -2.061500616512772E+08,
2460063.500000000, A.D. 2023-Apr-29 00:00:00.0000, -3.301364086849586E+08, 3.309739079613189E+08, -2.084688534709422E+08,
2460070.500000000, A.D. 2023-May-06 00:00:00.0000, -3.360401620263988E+08, 3.261251589039863E+08, -2.107121707938995E+08,
2460077.500000000, A.D. 2023-May-13 00:00:00.0000, -3.418234595440108E+08, 3.211594494544651E+08, -2.128799323620507E+08,
2460084.500000000, A.D. 2023-May-20 00:00:00.0000, -3.474853519099779E+08, 3.160796183574226E+08, -2.149720607141434E+08,
2460091.500000000, A.D. 2023-May-27 00:00:00.0000, -3.530249100160991E+08, 3.108884562619544E+08, -2.169884815251396E+08,
2460098.500000000, A.D. 2023-Jun-03 00:00:00.0000, -3.584412231570136E+08, 3.055887079548740E+08, -2.189291229972764E+08,
2460105.500000000, A.D. 2023-Jun-10 00:00:00.0000, -3.637333972987201E+08, 3.001830744457121E+08, -2.207939153032343E+08,
2460112.500000000, A.D. 2023-Jun-17 00:00:00.0000, -3.689005533359630E+08, 2.946742148465468E+08, -2.225827900916169E+08,
2460119.500000000, A.D. 2023-Jun-24 00:00:00.0000, -3.739418250116432E+08, 2.890647481052998E+08, -2.242956800767243E+08,
2460126.500000000, A.D. 2023-Jul-01 00:00:00.0000, -3.788563562389146E+08, 2.833572554234059E+08, -2.259325186655108E+08,
2460133.500000000, A.D. 2023-Jul-08 00:00:00.0000, -3.836432994945930E+08, 2.775542841827683E+08, -2.274932393989207E+08,
2460140.500000000, A.D. 2023-Jul-15 00:00:00.0000, -3.883018165555318E+08, 2.716583505556843E+08, -2.289777753201835E+08,
2460147.500000000, A.D. 2023-Jul-22 00:00:00.0000, -3.928310780509295E+08, 2.656719397666343E+08, -2.303860586751646E+08,
$$EOE